start=new Date('2022-07-29T00:00:00.000Z').valueOf();
sats=[{"CENTER_NAME":"EARTH","MEAN_ANOMALY":"297.3128","ARG_OF_PERICENTER":"62.8024","RCS_SIZE":"LARGE","TLE_LINE1":"1 45214U 20012AN  22209.24575039 -.00000502  00000-0 -14801-4 0  9998","MEAN_ELEMENT_THEORY":"SGP4","LAUNCH_DATE":"2020-02-17","OBJECT_TYPE":"PAYLOAD","SEMIMAJOR_AXIS":"6925.366","MEAN_MOTION_DOT":"-0.00000502","REF_FRAME":"TEME","TLE_LINE2":"2 45214  53.0539 194.3135 0001596  62.8024 297.3128 15.06394355136094","FILE":"3523641","CLASSIFICATION_TYPE":"U","ECCENTRICITY":"0.00015960","COUNTRY_CODE":"US","DECAY_DATE":null,"TIME_SYSTEM":"UTC","INCLINATION":"53.0539","RA_OF_ASC_NODE":"194.3135","PERIAPSIS":"546.126","MEAN_MOTION":"15.06394355","PERIOD":"95.592","EPHEMERIS_TYPE":"0","GP_ID":"209027940","NORAD_CAT_ID":"45214","ELEMENT_SET_NO":"999","EPOCH":"2022-07-28T05:53:52.833696","SITE":"AFETR","MEAN_MOTION_DDOT":"0.0000000000000","REV_AT_EPOCH":"13609","APOAPSIS":"548.336","OBJECT_ID":"2020-012AN","OBJECT_NAME":"STARLINK-1233","BSTAR":"-0.00001480100000"},{"LAUNCH_DATE":"2020-02-17","OBJECT_TYPE":"PAYLOAD","SEMIMAJOR_AXIS":"6925.378","MEAN_MOTION_DOT":"-0.00000914","REF_FRAME":"TEME","TLE_LINE2":"2 45215  53.0543 193.7407 0001848  54.0310 306.0850 15.06390334136055","CLASSIFICATION_TYPE":"U","FILE":"3523641","COUNTRY_CODE":"US","ECCENTRICITY":"0.00018480","DECAY_DATE":null,"TIME_SYSTEM":"UTC","INCLINATION":"53.0543","CENTER_NAME":"EARTH","MEAN_ANOMALY":"306.0850","ARG_OF_PERICENTER":"54.0310","RCS_SIZE":"LARGE","TLE_LINE1":"1 45215U 20012AP  22209.37570049 -.00000914  00000-0 -42461-4 0  9999","MEAN_ELEMENT_THEORY":"SGP4","EPOCH":"2022-07-28T09:01:00.522336","SITE":"AFETR","MEAN_MOTION_DDOT":"0.0000000000000","REV_AT_EPOCH":"13605","APOAPSIS":"548.523","OBJECT_NAME":"STARLINK-1245","OBJECT_ID":"2020-012AP","BSTAR":"-0.00004246100000","RA_OF_ASC_NODE":"193.7407","PERIAPSIS":"545.963","MEAN_MOTION":"15.06390334","PERIOD":"95.593","EPHEMERIS_TYPE":"0","GP_ID":"209028694","NORAD_CAT_ID":"45215","ELEMENT_SET_NO":"999"},{"FILE":"3523938","CLASSIFICATION_TYPE":"U","TLE_LINE2":"2 45217  53.0550 194.1633 0001573  61.6005 298.5142 15.06399828135168","REF_FRAME":"TEME","MEAN_MOTION_DOT":"-0.00000546","SEMIMAJOR_AXIS":"6925.349","OBJECT_TYPE":"PAYLOAD","LAUNCH_DATE":"2020-02-17","INCLINATION":"53.0550","TIME_SYSTEM":"UTC","DECAY_DATE":null,"COUNTRY_CODE":"US","ECCENTRICITY":"0.00015730","ARG_OF_PERICENTER":"61.6005","MEAN_ANOMALY":"298.5142","CENTER_NAME":"EARTH","TLE_LINE1":"1 45217U 20012AR  22209.28354729 -.00000546  00000-0 -17742-4 0  9991","MEAN_ELEMENT_THEORY":"SGP4","RCS_SIZE":"LARGE","REV_AT_EPOCH":"13516","MEAN_MOTION_DDOT":"0.0000000000000","SITE":"AFETR","EPOCH":"2022-07-28T06:48:18.485856","BSTAR":"-0.00001774200000","OBJECT_ID":"2020-012AR","OBJECT_NAME":"STARLINK-1271","APOAPSIS":"548.303","EPHEMERIS_TYPE":"0","PERIOD":"95.592","PERIAPSIS":"546.125","MEAN_MOTION":"15.06399828","RA_OF_ASC_NODE":"194.1633","ELEMENT_SET_NO":"999","NORAD_CAT_ID":"45217","GP_ID":"209040513"},{"MEAN_MOTION":"15.06400669","PERIAPSIS":"546.034","RA_OF_ASC_NODE":"174.1682","EPHEMERIS_TYPE":"0","PERIOD":"95.592","GP_ID":"209028189","NORAD_CAT_ID":"45219","ELEMENT_SET_NO":"999","SITE":"AFETR","EPOCH":"2022-07-28T06:45:38.743488","REV_AT_EPOCH":"13639","MEAN_MOTION_DDOT":"0.0000000000000","OBJECT_NAME":"STARLINK-1187","OBJECT_ID":"2020-012AT","APOAPSIS":"548.390","BSTAR":"0.00010393000000","ARG_OF_PERICENTER":"71.7751","MEAN_ANOMALY":"288.3423","CENTER_NAME":"EARTH","TLE_LINE1":"1 45219U 20012AT  22209.28169842  .00001267  00000-0  10393-3 0  9996","MEAN_ELEMENT_THEORY":"SGP4","RCS_SIZE":"LARGE","MEAN_MOTION_DOT":"0.00001267","SEMIMAJOR_AXIS":"6925.347","LAUNCH_DATE":"2020-02-17","OBJECT_TYPE":"PAYLOAD","FILE":"3523641","CLASSIFICATION_TYPE":"U","TLE_LINE2":"2 45219  53.0550 174.1682 0001701  71.7751 288.3423 15.06400669136396","REF_FRAME":"TEME","INCLINATION":"53.0550","DECAY_DATE":null,"TIME_SYSTEM":"UTC","ECCENTRICITY":"0.00017010","COUNTRY_CODE":"US"},{"RA_OF_ASC_NODE":"171.4743","PERIAPSIS":"545.933","MEAN_MOTION":"15.06401514","EPHEMERIS_TYPE":"0","PERIOD":"95.592","GP_ID":"209063742","NORAD_CAT_ID":"45221","ELEMENT_SET_NO":"999","EPOCH":"2022-07-28T21:10:49.334016","SITE":"AFETR","MEAN_MOTION_DDOT":"0.0000000000000","REV_AT_EPOCH":"13647","OBJECT_ID":"2020-012AV","OBJECT_NAME":"STARLINK-1189","APOAPSIS":"548.485","BSTAR":"0.00018811000000","CENTER_NAME":"EARTH","ARG_OF_PERICENTER":"73.0165","MEAN_ANOMALY":"287.1025","RCS_SIZE":"LARGE","MEAN_ELEMENT_THEORY":"SGP4","TLE_LINE1":"1 45221U 20012AV  22209.88251544  .00002521  00000-0  18811-3 0  9993","SEMIMAJOR_AXIS":"6925.344","LAUNCH_DATE":"2020-02-17","OBJECT_TYPE":"PAYLOAD","MEAN_MOTION_DOT":"0.00002521","TLE_LINE2":"2 45221  53.0535 171.4743 0001842  73.0165 287.1025 15.06401514136474","REF_FRAME":"TEME","CLASSIFICATION_TYPE":"U","FILE":"3524113","TIME_SYSTEM":"UTC","DECAY_DATE":null,"COUNTRY_CODE":"US","ECCENTRICITY":"0.00018420","INCLINATION":"53.0535"},{"MEAN_MOTION_DOT":"0.00001839","LAUNCH_DATE":"2020-02-17","OBJECT_TYPE":"PAYLOAD","SEMIMAJOR_AXIS":"6925.345","FILE":"3524113","CLASSIFICATION_TYPE":"U","REF_FRAME":"TEME","TLE_LINE2":"2 45222  53.0554 171.4196 0001903  64.4507 295.6678 15.06401320136473","INCLINATION":"53.0554","COUNTRY_CODE":"US","ECCENTRICITY":"0.00019030","DECAY_DATE":null,"TIME_SYSTEM":"UTC","MEAN_ANOMALY":"295.6678","ARG_OF_PERICENTER":"64.4507","CENTER_NAME":"EARTH","TLE_LINE1":"1 45222U 20012AW  22209.88988427  .00001839  00000-0  14231-3 0  9994","MEAN_ELEMENT_THEORY":"SGP4","RCS_SIZE":"LARGE","SITE":"AFETR","EPOCH":"2022-07-28T21:21:26.000928","REV_AT_EPOCH":"13647","MEAN_MOTION_DDOT":"0.0000000000000","APOAPSIS":"548.527","OBJECT_ID":"2020-012AW","OBJECT_NAME":"STARLINK-1191","BSTAR":"0.00014231000000","PERIAPSIS":"545.892","MEAN_MOTION":"15.06401320","RA_OF_ASC_NODE":"171.4196","PERIOD":"95.592","EPHEMERIS_TYPE":"0","NORAD_CAT_ID":"45222","GP_ID":"209063993","ELEMENT_SET_NO":"999"},{"REV_AT_EPOCH":"13648","MEAN_MOTION_DDOT":"0.0000000000000","SITE":"AFETR","EPOCH":"2022-07-28T21:51:55.030176","BSTAR":"-0.00004231300000","OBJECT_ID":"2020-012AX","OBJECT_NAME":"STARLINK-1212","APOAPSIS":"548.765","EPHEMERIS_TYPE":"0","PERIOD":"95.593","MEAN_MOTION":"15.06393580","PERIAPSIS":"545.701","RA_OF_ASC_NODE":"171.3241","ELEMENT_SET_NO":"999","GP_ID":"209064241","NORAD_CAT_ID":"45223","FILE":"3524113","CLASSIFICATION_TYPE":"U","TLE_LINE2":"2 45223  53.0526 171.3241 0002212  66.5546 293.5675 15.06393580136486","REF_FRAME":"TEME","MEAN_MOTION_DOT":"-0.00000912","SEMIMAJOR_AXIS":"6925.368","LAUNCH_DATE":"2020-02-17","OBJECT_TYPE":"PAYLOAD","INCLINATION":"53.0526","DECAY_DATE":null,"TIME_SYSTEM":"UTC","COUNTRY_CODE":"US","ECCENTRICITY":"0.00022120","ARG_OF_PERICENTER":"66.5546","MEAN_ANOMALY":"293.5675","CENTER_NAME":"EARTH","TLE_LINE1":"1 45223U 20012AX  22209.91105359 -.00000912  00000-0 -42313-4 0  9990","MEAN_ELEMENT_THEORY":"SGP4","RCS_SIZE":"LARGE"},{"SITE":"AFETR","EPOCH":"2022-07-28T20:44:15.671328","REV_AT_EPOCH":"13642","MEAN_MOTION_DDOT":"0.0000000000000","APOAPSIS":"548.682","OBJECT_NAME":"STARLINK-1215","OBJECT_ID":"2020-012AZ","BSTAR":"0.00010016000000","PERIAPSIS":"545.720","MEAN_MOTION":"15.06404071","RA_OF_ASC_NODE":"171.5373","PERIOD":"95.592","EPHEMERIS_TYPE":"0","GP_ID":"209062992","NORAD_CAT_ID":"45225","ELEMENT_SET_NO":"999","MEAN_MOTION_DOT":"0.00001211","OBJECT_TYPE":"PAYLOAD","LAUNCH_DATE":"2020-02-17","SEMIMAJOR_AXIS":"6925.336","CLASSIFICATION_TYPE":"U","FILE":"3524113","REF_FRAME":"TEME","TLE_LINE2":"2 45225  53.0548 171.5373 0002138  60.2678 299.8523 15.06404071136427","INCLINATION":"53.0548","COUNTRY_CODE":"US","ECCENTRICITY":"0.00021380","DECAY_DATE":null,"TIME_SYSTEM":"UTC","MEAN_ANOMALY":"299.8523","ARG_OF_PERICENTER":"60.2678","CENTER_NAME":"EARTH","TLE_LINE1":"1 45225U 20012AZ  22209.86407027  .00001211  00000-0  10016-3 0  9998","MEAN_ELEMENT_THEORY":"SGP4","RCS_SIZE":"LARGE"},{"RCS_SIZE":"LARGE","MEAN_ELEMENT_THEORY":"SGP4","TLE_LINE1":"1 45226U 20012BA  22209.87145839 -.00000286  00000-0 -27920-6 0  9998","CENTER_NAME":"EARTH","MEAN_ANOMALY":"287.2139","ARG_OF_PERICENTER":"72.9027","COUNTRY_CODE":"US","ECCENTRICITY":"0.00016200","DECAY_DATE":null,"TIME_SYSTEM":"UTC","INCLINATION":"53.0555","REF_FRAME":"TEME","TLE_LINE2":"2 45226  53.0555 171.5162 0001620  72.9027 287.2139 15.06388074136388","FILE":"3524113","CLASSIFICATION_TYPE":"U","LAUNCH_DATE":"2020-02-17","OBJECT_TYPE":"PAYLOAD","SEMIMAJOR_AXIS":"6925.385","MEAN_MOTION_DOT":"-0.00000286","ELEMENT_SET_NO":"999","GP_ID":"209063243","NORAD_CAT_ID":"45226","PERIOD":"95.593","EPHEMERIS_TYPE":"0","RA_OF_ASC_NODE":"171.5162","PERIAPSIS":"546.128","MEAN_MOTION":"15.06388074","BSTAR":"-0.00000027920000","APOAPSIS":"548.372","OBJECT_ID":"2020-012BA","OBJECT_NAME":"STARLINK-1217","MEAN_MOTION_DDOT":"0.0000000000000","REV_AT_EPOCH":"13638","EPOCH":"2022-07-28T20:54:54.004896","SITE":"AFETR"},{"OBJECT_ID":"2020-012BB","OBJECT_NAME":"STARLINK-1221","APOAPSIS":"548.284","BSTAR":"0.00020840000000","EPOCH":"2022-07-28T19:51:12.161376","SITE":"AFETR","MEAN_MOTION_DDOT":"0.0000000000000","REV_AT_EPOCH":"13638","GP_ID":"209064493","NORAD_CAT_ID":"45227","ELEMENT_SET_NO":"999","RA_OF_ASC_NODE":"171.7100","PERIAPSIS":"546.134","MEAN_MOTION":"15.06401537","EPHEMERIS_TYPE":"0","PERIOD":"95.592","TIME_SYSTEM":"UTC","DECAY_DATE":null,"ECCENTRICITY":"0.00015520","COUNTRY_CODE":"US","INCLINATION":"53.0555","SEMIMAJOR_AXIS":"6925.344","OBJECT_TYPE":"PAYLOAD","LAUNCH_DATE":"2020-02-17","MEAN_MOTION_DOT":"0.00002824","TLE_LINE2":"2 45227  53.0555 171.7100 0001552  71.0722 289.0435 15.06401537136388","REF_FRAME":"TEME","CLASSIFICATION_TYPE":"U","FILE":"3524113","RCS_SIZE":"LARGE","MEAN_ELEMENT_THEORY":"SGP4","TLE_LINE1":"1 45227U 20012BB  22209.82722409  .00002824  00000-0  20840-3 0  9997","CENTER_NAME":"EARTH","ARG_OF_PERICENTER":"71.0722","MEAN_ANOMALY":"289.0435"}];
